STARLINK-30596          
1 58110U 23161P   26068.54923750  .00001569  00000+0  65109-4 0  9990
2 58110  53.1581 165.9283 0000953  81.4219 278.6890 15.30185320134406
TEVEL2-6                
1 63215U 25052F   26068.64958975  .00021046  00000+0  70909-3 0  9996
2 63215  97.4016 325.0381 0004769  95.6604 264.5181 15.30760889 54861
